TIANWANG 1C (TW-1C)     
1 40926U 15051B   17234.53875225  .00009019  00000-0  20257-3 0  9995
2 40926  97.2254 273.6025 0009488 292.0387 172.0927 15.43542886107155
TIANWANG 1B (TW-1B)     
1 40927U 15051C   17234.53268381  .00009274  00000-0  21616-3 0  9998
2 40927  97.2342 273.5836 0009504 304.4243 191.0773 15.42423949107091
TIANWANG 1A (TW-1A)     
1 40928U 15051D   17234.39841567  .00004431  00000-0  12636-3 0  9998
2 40928  97.2230 269.0222 0011559 327.7324 147.1312 15.36517539106865
LAPAN-A2 (IO-86)        
1 40931U 15052B   17234.44023905  .00000728  00000-0  12386-4 0  9995
2 40931   5.9970 120.2870 0012955 100.5861 259.5723 14.76537266102779
LQSAT                   
1 40958U 15057A   17234.41269619  .00000027  00000-0  12021-4 0  9998
2 40958  97.9740 308.5616 0017349 210.3504 149.6696 14.72978163100866
CHUBUSAT-2              
1 41338U 16012B   17233.90924561  .00000432  00000-0  27278-4 0  9990
2 41338  31.0041  54.8444 0013982 349.3037  10.7299 14.99775605 82866
CHUBUSAT-3              
1 41339U 16012C   17234.56053036  .00000344  00000-0  20192-4 0  9994
2 41339  31.0121  49.7455 0013983   2.4490 357.6216 14.99978160 82944
OUFTI-1                 
1 41458U 16025C   17234.27548579  .00003279  00000-0  17681-3 0  9997
2 41458  98.1778 275.6319 0174575  69.0928 292.8887 15.03389275 72512
E-ST@R-II               
1 41459U 16025D   17234.30364037  .00003000  00000-0  16176-3 0  9997
2 41459  98.1811 275.6023 0176484  69.2585 292.7452 15.03229514 72500
AAUSAT 4                
1 41460U 16025E   17234.46024120  .00004896  00000-0  26180-3 0  9992
2 41460  98.1741 275.9042 0167955  66.7993 295.0821 15.04198539 72550
NUSAT 1 (LO-87)         
1 41557U 16033B   17234.25888927  .00002249  00000-0  86861-4 0  9991
2 41557  97.4607 313.7732 0015577 130.5368 229.7230 15.27227410 68510
BEESAT-4                
1 41619U 16040W   17234.11795167  .00001978  00000-0  92376-4 0  9992
2 41619  97.4571 295.8571 0011762 190.0268 170.0734 15.20942187 52611
PRATHAM                 
1 41783U 16059A   17234.16748049  .00000063  00000-0  21795-4 0  9997
2 41783  98.1616 294.8392 0032625 315.6190  44.2397 14.62851010 48241
ALSAT 1N                
1 41789U 16059G   17234.37477933  .00000050  00000-0  18846-4 0  9996
2 41789  98.1620 295.6737 0027484 309.4838  50.3935 14.64065248 48294
NAYIF-1 (EO-88)         
1 42017U 17008BX  17234.13315531  .00002205  00000-0  96270-4 0  9996
2 42017  97.4900 295.4505 0006396   5.8068 354.3242 15.23184477 28528
LILACSAT-1              
1 42725U 98067ME  17234.38051052  .00016720  00000-0  23823-3 0  9998
2 42725  51.6396  67.4394 0006855 192.2698 167.8128 15.56431644 13787
MAX VALIER SAT          
1 42778U 17036P   17234.16258250  .00001533  00000-0  73256-4 0  9990
2 42778  97.4465 293.2105 0013935  42.8372 317.3946 15.20454866  9052
